NORAD_CAT_ID,OBJECT_NAME,OBJECT_TYPE,EPOCH,MEAN_MOTION,ECCENTRICITY,INCLINATION,RA_OF_ASC_NODE,ARG_OF_PERICENTER,MEAN_ANOMALY,BSTAR,MEAN_MOTION_DOT,MEAN_MOTION_DDOT,TLE_LINE0,TLE_LINE1,TLE_LINE2,SEMIMAJOR_AXIS,PERIOD,APOGEE,PERIGEE,DECAYED
54775.0,STARLINK-5465,PAYLOAD,2024-05-30 17:52:15,15.08837381,0.000125,53.2182,72.6952,88.8533,271.2602,2.3295e-05,8.3e-07,0.0,0 STARLINK-5465,1 54775U 22175T   24151.74462682  .00000083  00000-0  23295-4 0  9993,2 54775  53.2182  72.6952 0001250  88.8533 271.2602 15.08837381 79948,6917.888,95.438,540.618,538.889,0.0
54775.0,STARLINK-5465,PAYLOAD,2024-05-31 04:59:57,15.08836489,0.0001243,53.2187,70.6131,89.5053,270.6082,2.9081e-05,1.75e-06,0.0,0 STARLINK-5465,1 54775U 22175T   24152.20830813  .00000175  00000-0  29081-4 0  9991,2 54775  53.2187  70.6131 0001243  89.5053 270.6082 15.08836489 82179,6917.891,95.438,540.616,538.896,0.0
54775.0,STARLINK-5465,PAYLOAD,2024-05-31 22:29:13,15.08828157,0.0001317,53.2188,67.3422,77.0586,283.0553,-9.9295e-05,-1.867e-05,0.0,0 STARLINK-5465,1 54775U 22175T   24152.93695952 -.00001867  00000-0 -99295-4 0  9999,2 54775  53.2188  67.3422 0001317  77.0586 283.0553 15.08828157 82287,6917.917,95.438,540.693,538.87,0.0
54775.0,STARLINK-5465,PAYLOAD,2024-06-01 03:15:22,15.08832619,0.0001557,53.2196,66.4517,79.3516,280.7651,-2.3012e-05,-6.54e-06,0.0,0 STARLINK-5465,1 54775U 22175T   24153.13567581 -.00000654  00000-0 -23012-4 0  9995,2 54775  53.2196  66.4517 0001557  79.3516 280.7651 15.08832619 80150,6917.903,95.438,540.845,538.691,0.0
54775.0,STARLINK-5465,PAYLOAD,2024-06-01 11:12:17,15.08843004,0.0001529,53.2203,64.9652,79.8205,280.2959,5.7236e-05,6.23e-06,0.0,0 STARLINK-5465,1 54775U 22175T   24153.46686842  .00000623  00000-0  57236-4 0  9992,2 54775  53.2203  64.9652 0001529  79.8205 280.2959 15.08843004 82362,6917.871,95.437,540.794,538.678,0.0
54775.0,STARLINK-5465,PAYLOAD,2024-06-02 03:06:09,15.08839808,0.0001437,53.2191,61.9919,84.6348,275.4808,-6.1135e-06,-3.85e-06,0.0,0 STARLINK-5465,1 54775U 22175T   24154.12927437 -.00000385  00000-0 -61135-5 0  9995,2 54775  53.2191  61.9919 0001437  84.6348 275.4808 15.08839808 80309,6917.881,95.438,540.74,538.752,0.0
54775.0,STARLINK-5465,PAYLOAD,2024-06-02 11:03:04,15.08845874,0.0001454,53.2195,60.5063,89.7899,270.326,4.8763e-05,4.88e-06,0.0,0 STARLINK-5465,1 54775U 22175T   24154.46046823  .00000488  00000-0  48763-4 0  9996,2 54775  53.2195  60.5063 0001454  89.7899 270.3260 15.08845874 80355,6917.862,95.437,540.733,538.722,0.0
54775.0,STARLINK-5465,PAYLOAD,2024-06-03 02:56:56,15.08836836,0.0001401,53.219,57.5298,94.0899,266.0254,4.069e-05,3.6e-06,0.0,0 STARLINK-5465,1 54775U 22175T   24155.12287492  .00000360  00000-0  40690-4 0  9999,2 54775  53.2190  57.5298 0001401  94.0899 266.0254 15.08836836 80451,6917.89,95.438,540.724,538.786,0.0
54775.0,STARLINK-5465,PAYLOAD,2024-06-03 10:53:50,15.0885252,0.000138,53.2185,56.0442,88.4389,271.6761,0.00011402,1.528e-05,0.0,0 STARLINK-5465,1 54775U 22175T   24155.45406208  .00001528  00000-0  11402-3 0  9998,2 54775  53.2185  56.0442 0001380  88.4389 271.6761 15.08852520 80506,6917.842,95.437,540.662,538.752,0.0
54775.0,STARLINK-5465,PAYLOAD,2024-06-04 02:47:42,15.0884567,0.000162,53.2189,53.07,97.2138,262.9038,3.33e-05,2.42e-06,0.0,0 STARLINK-5465,1 54775U 22175T   24156.11646793  .00000242  00000-0  33300-4 0  9991,2 54775  53.2189  53.0700 0001620  97.2138 262.9038 15.08845670 80600,6917.863,95.437,540.849,538.607,0.0
54775.0,STARLINK-5465,PAYLOAD,2024-06-04 10:44:38,15.08847979,0.0001611,53.219,51.5824,98.0401,262.0774,4.7865e-05,4.74e-06,0.0,0 STARLINK-5465,1 54775U 22175T   24156.44766439  .00000474  00000-0  47865-4 0  9995,2 54775  53.2190  51.5824 0001611  98.0401 262.0774 15.08847979 82811,6917.856,95.437,540.835,538.607,0.0
54775.0,STARLINK-5465,PAYLOAD,2024-06-04 23:27:43,15.08844513,0.0002272,53.219,49.204,91.7849,268.3403,7.2267e-05,8.62e-06,0.0,0 STARLINK-5465,1 54775U 22175T   24156.97758619  .00000862  00000-0  72267-4 0  9999,2 54775  53.2190  49.2040 0002272  91.7849 268.3403 15.08844513 82892,6917.867,95.437,541.303,538.16,0.0
54775.0,STARLINK-5465,PAYLOAD,2024-06-05 02:38:30,15.08843914,0.0001349,53.221,48.6093,90.5735,269.5412,-7.0045e-05,-1.403e-05,0.0,0 STARLINK-5465,1 54775U 22175T   24157.11007080 -.00001403  00000-0 -70045-4 0  9991,2 54775  53.2210  48.6093 0001349  90.5735 269.5412 15.08843914 80751,6917.868,95.437,540.667,538.8,0.0
54775.0,STARLINK-5465,PAYLOAD,2024-06-05 23:18:31,15.08837798,0.0001665,53.2214,44.7423,92.6467,267.4716,-1.922e-05,-5.94e-06,0.0,0 STARLINK-5465,1 54775U 22175T   24157.97119272 -.00000594  00000-0 -19220-4 0  9990,2 54775  53.2214  44.7423 0001665  92.6467 267.4716 15.08837798 83047,6917.887,95.438,540.904,538.6,0.0
54775.0,STARLINK-5465,PAYLOAD,2024-06-06 08:50:49,15.08842431,0.0001847,53.219,42.9593,93.051,267.0693,-2.2659e-05,-6.49e-06,0.0,0 STARLINK-5465,1 54775U 22175T   24158.36862980 -.00000649  00000-0 -22659-4 0  9996,2 54775  53.2190  42.9593 0001847  93.0510 267.0693 15.08842431 80940,6917.873,95.437,541.016,538.46,0.0
54775.0,STARLINK-5465,PAYLOAD,2024-06-07 00:44:42,15.08825455,0.0002237,53.2206,39.9842,76.581,283.5431,-2.9587e-05,-7.59e-06,0.0,0 STARLINK-5465,1 54775U 22175T   24159.03104685 -.00000759  00000-0 -29587-4 0  9991,2 54775  53.2206  39.9842 0002237  76.5810 283.5431 15.08825455 81046,6917.925,95.438,541.337,538.242,0.0
54775.0,STARLINK-5465,PAYLOAD,2024-06-07 08:41:37,15.08842097,0.0002143,53.2226,38.4988,78.7979,281.3254,0.00010074,1.315e-05,0.0,0 STARLINK-5465,1 54775U 22175T   24159.36223396  .00001315  00000-0  10074-3 0  9995,2 54775  53.2226  38.4988 0002143  78.7979 281.3254 15.08842097 81094,6917.874,95.437,541.221,538.256,0.0
54775.0,STARLINK-5465,PAYLOAD,2024-06-07 23:00:05,15.08838429,0.0002833,53.2246,35.8231,85.4741,274.6574,0.00011424,1.53e-05,0.0,0 STARLINK-5465,1 54775U 22175T   24159.95839755  .00001530  00000-0  11424-3 0  9991,2 54775  53.2246  35.8231 0002833  85.4741 274.6574 15.08838429 83340,6917.885,95.438,541.71,537.79,0.0
54775.0,STARLINK-5465,PAYLOAD,2024-06-08 08:32:23,15.08851075,0.0001175,53.2178,34.0401,85.4167,274.6959,4.5367e-05,4.34e-06,0.0,0 STARLINK-5465,1 54775U 22175T   24160.35582760  .00000434  00000-0  45367-4 0  9994,2 54775  53.2178  34.0401 0001175  85.4167 274.6959 15.08851075 83400,6917.847,95.437,540.524,538.899,0.0
54775.0,STARLINK-5465,PAYLOAD,2024-06-09 02:01:40,15.08833142,0.0001829,53.2184,30.7691,83.1366,276.9834,-8.3675e-05,-1.619e-05,0.0,0 STARLINK-5465,1 54775U 22175T   24161.08449132 -.00001619  00000-0 -83675-4 0  9992,2 54775  53.2184  30.7691 0001829  83.1366 276.9834 15.08833142 81357,6917.901,95.438,541.032,538.501,0.0
54775.0,STARLINK-5465,PAYLOAD,2024-06-09 21:06:16,15.08880514,0.0001394,53.2196,27.1999,87.4766,272.6386,-0.00045504,-7.531e-05,0.0,0 STARLINK-5465,1 54775U 22175T   24161.87936091 -.00007531  00000-0 -45504-3 0  9991,2 54775  53.2196  27.1999 0001394  87.4766 272.6386 15.08880514 81472,6917.757,95.435,540.586,538.657,0.0
54775.0,STARLINK-5465,PAYLOAD,2024-06-09 22:41:39,15.08866169,0.0001304,53.2188,26.9025,87.0054,273.1087,-0.00027534,-4.67e-05,0.0,0 STARLINK-5465,1 54775U 22175T   24161.94560054 -.00004670  00000-0 -27534-3 0  9995,2 54775  53.2188  26.9025 0001304  87.0054 273.1087 15.08866169 83642,6917.8,95.436,540.567,538.763,0.0
54775.0,STARLINK-5465,PAYLOAD,2024-06-10 08:13:57,15.08892582,0.0001233,53.2195,25.1169,82.5098,277.6034,-0.00049197,-8.12e-05,0.0,0 STARLINK-5465,1 54775U 22175T   24162.34302223 -.00008120  00000-0 -49197-3 0  9995,2 54775  53.2195  25.1169 0001233  82.5098 277.6034 15.08892582 81545,6917.72,95.434,540.438,538.732,0.0
54775.0,STARLINK-5465,PAYLOAD,2024-06-10 20:57:04,15.08830012,0.0001186,53.2183,22.7397,91.1377,268.9751,0.00011972,1.618e-05,0.0,0 STARLINK-5465,1 54775U 22175T   24162.87296778  .00001618  00000-0  11972-3 0  9993,2 54775  53.2183  22.7397 0001186  91.1377 268.9751 15.08830012 81629,6917.911,95.438,540.596,538.955,0.0
54775.0,STARLINK-5465,PAYLOAD,2024-06-10 22:32:27,15.08842349,0.0001322,53.218,22.4433,90.8439,269.2705,9.0355e-05,1.15e-05,0.0,0 STARLINK-5465,1 54775U 22175T   24162.93920189  .00001150  00000-0  90355-4 0  9994,2 54775  53.2180  22.4433 0001322  90.8439 269.2705 15.08842349 81631,6917.873,95.437,540.653,538.824,0.0
54775.0,STARLINK-5465,PAYLOAD,2024-06-11 08:04:45,15.08849969,0.0001352,53.2185,20.658,95.6726,264.4421,0.00014991,2.099e-05,0.0,0 STARLINK-5465,1 54775U 22175T   24163.33663397  .00002099  00000-0  14991-3 0  9998,2 54775  53.2185  20.6580 0001352  95.6726 264.4421 15.08849969 83857,6917.85,95.437,540.65,538.78,0.0
54775.0,STARLINK-5465,PAYLOAD,2024-06-11 20:47:50,15.08847643,0.0001491,53.2206,18.2758,104.3947,255.7211,-3.1947e-06,-3.39e-06,0.0,0 STARLINK-5465,1 54775U 22175T   24163.86655891 -.00000339  00000-0 -31947-5 0  9995,2 54775  53.2206  18.2758 0001491 104.3947 255.7211 15.08847643 83934,6917.857,95.437,540.753,538.691,0.0
54775.0,STARLINK-5465,PAYLOAD,2024-06-12 07:55:31,15.088609,0.0001562,53.221,16.1937,111.1409,248.975,-0.00012993,-2.356e-05,0.0,0 STARLINK-5465,1 54775U 22175T   24164.33022977 -.00002356  00000-0 -12993-3 0  9990,2 54775  53.2210  16.1937 0001562 111.1409 248.9750 15.08860900 81844,6917.817,95.436,540.762,538.601,0.0
54775.0,STARLINK-5465,PAYLOAD,2024-06-12 20:38:38,15.08836633,0.000168,53.2199,13.817,103.7445,256.3734,-5.2546e-05,-1.124e-05,0.0,0 STARLINK-5465,1 54775U 22175T   24164.86016508 -.00001124  00000-0 -52546-4 0  9992,2 54775  53.2199  13.8170 0001680 103.7445 256.3734 15.08836633 81921,6917.891,95.438,540.918,538.593,0.0
54775.0,STARLINK-5465,PAYLOAD,2024-06-12 23:49:24,15.0883747,0.0001547,53.219,13.2221,104.2873,255.8291,-5.1232e-05,-1.103e-05,0.0,0 STARLINK-5465,1 54775U 22175T   24164.99264416 -.00001103  00000-0 -51232-4 0  9997,2 54775  53.2190  13.2221 0001547 104.2873 255.8291 15.08837470 84101,6917.888,95.438,540.823,538.683,0.0
